{
    "links": {
        "self": "http://www.neowsapp.com/rest/v1/neo/3767165?api_key=iIulBulltgU6a56xZRHN4H3l9WmuAYTsLGpBGhQ2"
    },
    "id": "3767165",
    "neo_reference_id": "3767165",
    "name": "(2017 BN30)",
    "designation": "2017 BN30",
    "nasa_jpl_url": "http://ssd.jpl.nasa.gov/sbdb.cgi?sstr=3767165",
    "absolute_magnitude_h": 25.7,
    "estimated_diameter": {
        "kilometers": {
            "estimated_diameter_min": 0.0192555078,
            "estimated_diameter_max": 0.0430566244
        },
        "meters": {
            "estimated_diameter_min": 19.2555078188,
            "estimated_diameter_max": 43.0566244241
        },
        "miles": {
            "estimated_diameter_min": 0.0119648141,
            "estimated_diameter_max": 0.0267541378
        },
        "feet": {
            "estimated_diameter_min": 63.1742402722,
            "estimated_diameter_max": 141.2618956756
        }
    },
    "is_potentially_hazardous_asteroid": false,
    "close_approach_data": [
        {
            "close_approach_date": "2017-01-31",
            "close_approach_date_full": "2017-Jan-31 00:50",
            "epoch_date_close_approach": 1485823800000,
            "relative_velocity": {
                "kilometers_per_second": "7.9875099715",
                "kilometers_per_hour": "28755.0358975355",
                "miles_per_hour": "17867.2610553325"
            },
            "miss_distance": {
                "astronomical": "0.0262533049",
                "lunar": "10.2125356061",
                "kilometers": "3927438.493500563",
                "miles": "2440397.1171432494"
            },
            "orbiting_body": "Earth"
        }
    ],
    "orbital_data": {
        "orbit_id": "5",
        "orbit_determination_date": "2017-04-06 08:20:40",
        "first_observation_date": "2017-01-28",
        "last_observation_date": "2017-02-02",
        "data_arc_in_days": 5,
        "observations_used": 50,
        "orbit_uncertainty": "7",
        "minimum_orbit_intersection": ".0168454",
        "jupiter_tisserand_invariant": "3.457",
        "epoch_osculation": "2459000.5",
        "eccentricity": ".543284192250797",
        "semi_major_axis": "2.192705547402003",
        "inclination": "5.946874827439908",
        "ascending_node_longitude": "315.1658155059594",
        "orbital_period": "1185.956882743776",
        "perihelion_distance": "1.001443285237864",
        "perihelion_argument": "186.9711823740566",
        "aphelion_distance": "3.383967809566142",
        "perihelion_time": "2458978.377884834794",
        "mean_anomaly": "6.715220068582081",
        "mean_motion": ".3035523510493235",
        "equinox": "J2000",
        "orbit_class": {
            "orbit_class_type": "APO",
            "orbit_class_description": "Near-Earth asteroid orbits which cross the Earth’s orbit similar to that of 1862 Apollo",
            "orbit_class_range": "a (semi-major axis) > 1.0 AU; q (perihelion) < 1.017 AU"
        }
    },
    "is_sentry_object": false
}